[{"OBJECT_NAME":"STARLINK-32338","OBJECT_ID":"2024-183L","EPOCH":"2026-03-09T11:40:39.863136","MEAN_MOTION":15.30207913,"ECCENTRICITY":0.00011163,"INCLINATION":53.1604,"RA_OF_ASC_NODE":143.2176,"ARG_OF_PERICENTER":93.4347,"MEAN_ANOMALY":266.6781,"EPHEMERIS_TYPE":0,"CLASSIFICATION_TYPE":"U","NORAD_CAT_ID":61519,"ELEMENT_SET_NO":999,"REV_AT_EPOCH":7962,"BSTAR":-0.00016543302,"MEAN_MOTION_DOT":-5.256e-5,"MEAN_MOTION_DDOT":0},{"OBJECT_NAME":"OBJECT F","OBJECT_ID":"2021-022F","EPOCH":"2026-03-09T23:37:37.165152","MEAN_MOTION":15.31317672,"ECCENTRICITY":0.00120882,"INCLINATION":97.3982,"RA_OF_ASC_NODE":329.8375,"ARG_OF_PERICENTER":85.9268,"MEAN_ANOMALY":274.3355,"EPHEMERIS_TYPE":0,"CLASSIFICATION_TYPE":"U","NORAD_CAT_ID":47937,"ELEMENT_SET_NO":999,"REV_AT_EPOCH":27452,"BSTAR":0.00038690553,"MEAN_MOTION_DOT":0.00011656,"MEAN_MOTION_DDOT":0}]
